NORAD_CAT_ID,OBJECT_NAME,OBJECT_TYPE,EPOCH,MEAN_MOTION,ECCENTRICITY,INCLINATION,RA_OF_ASC_NODE,ARG_OF_PERICENTER,MEAN_ANOMALY,BSTAR,MEAN_MOTION_DOT,MEAN_MOTION_DDOT,TLE_LINE0,TLE_LINE1,TLE_LINE2,SEMIMAJOR_AXIS,PERIOD,APOGEE,PERIGEE,DECAYED
50809.0,STARLINK-3232,PAYLOAD,2023-02-08 17:20:44,15.08851995,0.000117,53.2151,169.2996,107.548,252.5639,0.00034536,5.215e-05,0.0,0 STARLINK-3232,1 50809U 22001G   23039.72273918  .00005215  00000-0  34536-3 0  9990,2 50809  53.2151 169.2996 0001170 107.5480 252.5639 15.08851995 61995,6917.844,95.437,540.518,538.899,0.0
50809.0,STARLINK-3232,PAYLOAD,2023-02-09 01:17:40,15.08844327,0.0001304,53.2148,167.8103,79.8654,280.2485,0.0001921,2.771e-05,0.0,0 STARLINK-3232,1 50809U 22001G   23040.05394164  .00002771  00000-0  19210-3 0  9991,2 50809  53.2148 167.8103 0001304  79.8654 280.2485 15.08844327 62043,6917.867,95.437,540.634,538.83,0.0
50809.0,STARLINK-3232,PAYLOAD,2023-02-09 10:49:59,15.08838338,0.0001783,53.2158,166.032,85.9462,274.1734,0.00012126,1.642e-05,0.0,0 STARLINK-3232,1 50809U 22001G   23040.45138722  .00001642  00000-0  12126-3 0  9996,2 50809  53.2158 166.0320 0001783  85.9462 274.1734 15.08838338 60820,6917.885,95.438,540.984,538.517,0.0
50809.0,STARLINK-3232,PAYLOAD,2023-02-09 20:22:18,15.08861249,0.0001307,53.2151,164.2455,89.4884,270.6258,0.00086508,0.00013515,0.0,0 STARLINK-3232,1 50809U 22001G   23040.84882028  .00013515  00000-0  86508-3 0  9991,2 50809  53.2151 164.2455 0001307  89.4884 270.6258 15.08861249 60886,6917.815,95.436,540.585,538.776,0.0
50809.0,STARLINK-3232,PAYLOAD,2023-02-10 01:08:27,15.08831078,0.0001084,53.2146,163.3516,231.4692,128.6203,-0.00021124,-3.647e-05,0.0,0 STARLINK-3232,1 50809U 22001G   23041.04753940 -.00003647  00000-0 -21124-3 0  9994,2 50809  53.2146 163.3516 0001084 231.4692 128.6203 15.08831078 60919,6917.908,95.438,540.523,539.023,0.0
50809.0,STARLINK-3232,PAYLOAD,2023-02-10 12:16:10,15.08853889,0.0001148,53.2136,161.2709,103.0131,257.0989,0.0023223,0.00036879,0.0,0 STARLINK-3232,1 50809U 22001G   23041.51122965  .00036879  00000-0  23223-2 0  9995,2 50809  53.2136 161.2709 0001148 103.0131 257.0989 15.08853889 62264,6917.838,95.437,540.497,538.909,0.0
50809.0,STARLINK-3232,PAYLOAD,2023-02-10 20:13:05,15.08888637,0.0001223,53.2139,159.7845,99.3971,260.716,0.0034209,0.00054651,0.0,0 STARLINK-3232,1 50809U 22001G   23041.84242392  .00054651  00000-0  34209-2 0  9992,2 50809  53.2139 159.7845 0001223  99.3971 260.7160 15.08888637 61038,6917.732,95.434,540.443,538.751,0.0
50809.0,STARLINK-3232,PAYLOAD,2023-02-11 00:59:15,15.08821767,0.0001127,53.2141,158.8933,125.01,235.0998,0.0013784,0.00021706,0.0,0 STARLINK-3232,1 50809U 22001G   23042.04115004  .00021706  00000-0  13784-2 0  9994,2 50809  53.2141 158.8933 0001127 125.0100 235.0998 15.08821767 62343,6917.936,95.439,540.581,539.021,0.0
50809.0,STARLINK-3232,PAYLOAD,2023-02-11 16:53:06,15.08865827,0.0001152,53.2136,155.9181,126.3235,233.7863,0.0034336,0.00054822,0.0,0 STARLINK-3232,1 50809U 22001G   23042.70355185  .00054822  00000-0  34336-2 0  9994,2 50809  53.2136 155.9181 0001152 126.3235 233.7863 15.08865827 62443,6917.801,95.436,540.463,538.87,0.0
50809.0,STARLINK-3232,PAYLOAD,2023-02-12 13:33:08,15.08882142,0.0001751,53.2136,152.0526,99.999,260.12,0.0036957,0.00059091,0.0,0 STARLINK-3232,1 50809U 22001G   23043.56467676  .00059091  00000-0  36957-2 0  9992,2 50809  53.2136 152.0526 0001751  99.9990 260.1200 15.08882142 61292,6917.752,95.435,540.828,538.405,0.0
50809.0,STARLINK-3232,PAYLOAD,2023-02-12 18:19:17,15.08890789,0.0001173,53.2137,151.1601,100.3939,259.7185,0.0032386,0.00051705,0.0,0 STARLINK-3232,1 50809U 22001G   23043.76339154  .00051705  00000-0  32386-2 0  9999,2 50809  53.2137 151.1601 0001173 100.3939 259.7185 15.08890789 62603,6917.725,95.434,540.402,538.779,0.0
50809.0,STARLINK-3232,PAYLOAD,2023-02-13 00:40:49,15.08818167,0.0001493,53.2145,149.9711,125.0923,235.0209,0.0024062,0.00038192,0.0,0 STARLINK-3232,1 50809U 22001G   23044.02835297  .00038192  00000-0  24062-2 0  9995,2 50809  53.2145 149.9711 0001493 125.0923 235.0209 15.08818167 62649,6917.947,95.439,540.845,538.779,0.0
50809.0,STARLINK-3232,PAYLOAD,2023-02-13 07:02:22,15.08832622,0.0001178,53.215,148.7813,124.2841,235.8263,0.0031995,0.0005099,0.0,0 STARLINK-3232,1 50809U 22001G   23044.29331549  .00050990  00000-0  31995-2 0  9998,2 50809  53.2150 148.7813 0001178 124.2841 235.8263 15.08832622 61408,6917.903,95.438,540.583,538.953,0.0
50809.0,STARLINK-3232,PAYLOAD,2023-02-14 06:53:09,15.08879951,0.0001616,53.2154,144.3221,113.2954,246.8209,0.0032055,0.00051154,0.0,0 STARLINK-3232,1 50809U 22001G   23045.28691555  .00051154  00000-0  32055-2 0  9995,2 50809  53.2154 144.3221 0001616 113.2954 246.8209 15.08879951 62833,6917.758,95.435,540.741,538.505,0.0
50809.0,STARLINK-3232,PAYLOAD,2023-02-14 13:14:41,15.0886129,5.99e-05,53.2156,143.1317,85.1292,274.9768,0.0025511,0.0004057,0.0,0 STARLINK-3232,1 50809U 22001G   23045.55187385  .00040570  00000-0  25511-2 0  9995,2 50809  53.2156 143.1317 0000599  85.1292 274.9768 15.08861290 61590,6917.815,95.436,540.095,539.266,0.0
50809.0,STARLINK-3232,PAYLOAD,2023-02-14 16:25:28,15.08866145,0.0001365,53.2151,142.5378,93.2432,266.8717,0.0014391,0.00022706,0.0,0 STARLINK-3232,1 50809U 22001G   23045.68435212  .00022706  00000-0  14391-2 0  9999,2 50809  53.2151 142.5378 0001365  93.2432 266.8717 15.08866145 62895,6917.8,95.436,540.61,538.721,0.0
50809.0,STARLINK-3232,PAYLOAD,2023-02-15 11:30:05,15.08849353,0.0001659,53.2147,138.964,121.1788,238.9366,0.0011705,0.00018394,0.0,0 STARLINK-3232,1 50809U 22001G   23046.47923346  .00018394  00000-0  11705-2 0  9991,2 50809  53.2147 138.9640 0001659 121.1788 238.9366 15.08849353 63019,6917.852,95.437,540.864,538.569,0.0
50809.0,STARLINK-3232,PAYLOAD,2023-02-15 13:05:28,15.08871223,0.0001091,53.2143,138.6711,104.8455,255.2658,0.0019223,0.00030464,0.0,0 STARLINK-3232,1 50809U 22001G   23046.54547201  .00030464  00000-0  19223-2 0  9996,2 50809  53.2143 138.6711 0001091 104.8455 255.2658 15.08871223 61745,6917.785,95.436,540.405,538.895,0.0
50809.0,STARLINK-3232,PAYLOAD,2023-02-15 16:16:14,15.08888214,9.78e-05,53.2151,138.0761,106.2346,253.8754,0.0032482,0.00051856,0.0,0 STARLINK-3232,1 50809U 22001G   23046.67794902  .00051856  00000-0  32482-2 0  9992,2 50809  53.2151 138.0761 0000978 106.2346 253.8754 15.08888214 63045,6917.733,95.435,540.275,538.921,0.0
50809.0,STARLINK-3232,PAYLOAD,2023-02-16 12:56:15,15.0885198,8.94e-05,53.2133,134.2132,99.5758,260.5335,0.00074738,0.00011631,0.0,0 STARLINK-3232,1 50809U 22001G   23047.53906718  .00011631  00000-0  74738-3 0  9996,2 50809  53.2133 134.2132 0000894  99.5758 260.5335 15.08851980 63177,6917.844,95.437,540.327,539.09,0.0
50809.0,STARLINK-3232,PAYLOAD,2023-02-17 04:50:06,15.08856822,9.39e-05,53.2144,131.2402,102.1075,258.0022,0.00046339,7.098e-05,0.0,0 STARLINK-3232,1 50809U 22001G   23048.20146118  .00007098  00000-0  46339-3 0  9999,2 50809  53.2144 131.2402 0000939 102.1075 258.0022 15.08856822 63275,6917.829,95.436,540.344,539.044,0.0
50809.0,STARLINK-3232,PAYLOAD,2023-02-17 09:36:15,15.08856532,7.84e-05,53.2139,130.3469,83.4759,276.6322,0.00033787,5.096e-05,0.0,0 STARLINK-3232,1 50809U 22001G   23048.40017970  .00005096  00000-0  33787-3 0  9993,2 50809  53.2139 130.3469 0000784  83.4759 276.6322 15.08856532 62029,6917.83,95.437,540.237,539.152,0.0
50809.0,STARLINK-3232,PAYLOAD,2023-02-18 14:13:12,15.0883005,9.58e-05,53.2149,124.9951,27.8249,332.2794,7.4907e-05,9.04e-06,0.0,0 STARLINK-3232,1 50809U 22001G   23049.59251146  .00000904  00000-0  74907-4 0  9992,2 50809  53.2149 124.9951 0000958  27.8249 332.2794 15.08830050 62203,6917.911,95.438,540.439,539.113,0.0
50809.0,STARLINK-3232,PAYLOAD,2023-02-19 14:04:00,15.0884606,0.0001108,53.2147,120.5305,78.1685,281.9431,0.00039058,5.935e-05,0.0,0 STARLINK-3232,1 50809U 22001G   23050.58611339  .00005935  00000-0  39058-3 0  9993,2 50809  53.2147 120.5305 0001108  78.1685 281.9431 15.08846060 62359,6917.862,95.437,540.493,538.96,0.0
50809.0,STARLINK-3232,PAYLOAD,2023-02-19 22:00:56,15.08834056,0.0001583,53.2147,119.0464,69.6737,290.4425,0.00037984,5.761e-05,0.0,0 STARLINK-3232,1 50809U 22001G   23050.91732323  .00005761  00000-0  37984-3 0  9990,2 50809  53.2147 119.0464 0001583  69.6737 290.4425 15.08834056 63685,6917.899,95.438,540.859,538.668,0.0
50809.0,STARLINK-3232,PAYLOAD,2023-02-20 10:44:01,15.08844927,0.0001392,53.2127,116.665,86.1514,273.9638,0.00046084,7.055e-05,0.0,0 STARLINK-3232,1 50809U 22001G   23051.44724139  .00007055  00000-0  46084-3 0  9994,2 50809  53.2127 116.6650 0001392  86.1514 273.9638 15.08844927 62485,6917.865,95.437,540.693,538.767,0.0
50809.0,STARLINK-3232,PAYLOAD,2023-02-21 10:34:48,15.08855206,0.0001345,53.2145,112.2061,90.5111,269.6036,0.00080669,0.00012579,0.0,0 STARLINK-3232,1 50809U 22001G   23052.44084093  .00012579  00000-0  80669-3 0  9997,2 50809  53.2145 112.2061 0001345  90.5111 269.6036 15.08855206 63918,6917.834,95.437,540.629,538.768,0.0
50809.0,STARLINK-3232,PAYLOAD,2023-02-21 13:45:34,15.08862443,0.0001316,53.2149,111.6119,88.5356,271.5787,0.0011063,0.00017373,0.0,0 STARLINK-3232,1 50809U 22001G   23052.57331912  .00017373  00000-0  11063-2 0  9994,2 50809  53.2149 111.6119 0001316  88.5356 271.5787 15.08862443 62651,6917.812,95.436,540.587,538.766,0.0
50809.0,STARLINK-3232,PAYLOAD,2023-02-22 10:25:35,15.08854149,0.0001305,53.2143,107.7453,105.3508,254.7628,0.0010828,0.00016993,0.0,0 STARLINK-3232,1 50809U 22001G   23053.43443840  .00016993  00000-0  10828-2 0  9999,2 50809  53.2143 107.7453 0001305 105.3508 254.7628 15.08854149 64065,6917.837,95.437,540.605,538.799,0.0
50809.0,STARLINK-3232,PAYLOAD,2023-02-22 13:36:21,15.08859409,0.0001241,53.2142,107.1495,98.7536,261.3597,0.00077208,0.00012028,0.0,0 STARLINK-3232,1 50809U 22001G   23053.56691643  .00012028  00000-0  77208-3 0  9990,2 50809  53.2142 107.1495 0001241  98.7536 261.3597 15.08859409 62802,6917.821,95.436,540.545,538.828,0.0
